[{"OBJECT_NAME":"STARLINK-32562","OBJECT_ID":"2024-225F","EPOCH":"2026-03-09T16:21:06.295104","MEAN_MOTION":14.98336336,"ECCENTRICITY":0.00034535,"INCLINATION":70.0022,"RA_OF_ASC_NODE":164.4792,"ARG_OF_PERICENTER":273.4168,"MEAN_ANOMALY":86.6596,"EPHEMERIS_TYPE":0,"CLASSIFICATION_TYPE":"U","NORAD_CAT_ID":62168,"ELEMENT_SET_NO":999,"REV_AT_EPOCH":6987,"BSTAR":0.00050041941,"MEAN_MOTION_DOT":5.884e-5,"MEAN_MOTION_DDOT":0},{"OBJECT_NAME":"LEMUR-2-BALTO","OBJECT_ID":"2025-052BH","EPOCH":"2026-03-09T16:40:42.002112","MEAN_MOTION":14.98934076,"ECCENTRICITY":0.00022794,"INCLINATION":97.6978,"RA_OF_ASC_NODE":323.5166,"ARG_OF_PERICENTER":359.2852,"MEAN_ANOMALY":0.8367,"EPHEMERIS_TYPE":0,"CLASSIFICATION_TYPE":"U","NORAD_CAT_ID":63395,"ELEMENT_SET_NO":999,"REV_AT_EPOCH":5385,"BSTAR":0.00063455958,"MEAN_MOTION_DOT":7.621e-5,"MEAN_MOTION_DDOT":0}]
